KUIPER-00157            
1 65970U 25228Z   26015.16670139 -.01920375  00000+0 -83561-1 0  9995
2 65970  51.8805 219.6670 0005152 150.3221  29.0279 15.25001565  5671
KUIPER-00144            
1 67133U 25301A   26015.02457620  .00010847  00000+0  31286-3 0  9993
2 67133  51.8707 324.5762 0006321 180.3954 179.7028 15.36214226  5484
KUIPER-00164            
1 67134U 25301B   26014.88215997  .00019051  00000+0  53237-3 0  9992
2 67134  51.8724 325.1266 0003068 161.9339 198.1757 15.36712194  5646
KUIPER-00175            
1 67135U 25301C   26015.06728760  .00024200  00000+0  66115-3 0  9992
2 67135  51.8745 324.1175 0002314 112.9615 247.1616 15.37262973  5560
KUIPER-00179            
1 67136U 25301D   26015.07452787  .00021637  00000+0  59964-3 0  9992
2 67136  51.8749 324.1673 0003897 137.3914 222.7375 15.36883593  5677
KUIPER-00181            
1 67137U 25301E   26015.11129073  .00018948  00000+0  55989-3 0  9991
2 67137  51.8661 324.3878 0010527 209.1639 150.8760 15.34921685  5650
KUIPER-00183            
1 67138U 25301F   26015.11587044  .00013672  00000+0  40801-3 0  9994
2 67138  51.8640 324.4130 0011443 210.6271 149.4047 15.34862779  5668
KUIPER-00184            
1 67139U 25301G   26015.10926885  .00019768  00000+0  57907-3 0  9991
2 67139  51.8664 324.3739 0009097 208.9490 151.0992 15.35177735  5776
