<?xml version="1.0" encoding="UTF-8"?>
<ndm xmlns:xsi="http://www.w3.org/2001/XMLSchema-instance" xsi:noNamespaceSchemaLocation="https://sanaregistry.org/r/ndmxml_unqualified/ndmxml-2.0.0-master-2.0.xsd">
<omm id="CCSDS_OMM_VERS" version="2.0">
<header><CREATION_DATE/><ORIGINATOR/></header><body><segment><metadata><OBJECT_NAME>KUIPER-00157</OBJECT_NAME><OBJECT_ID>2025-228Z</OBJECT_ID><CENTER_NAME>EARTH</CENTER_NAME><REF_FRAME>TEME</REF_FRAME><TIME_SYSTEM>UTC</TIME_SYSTEM><MEAN_ELEMENT_THEORY>SGP4</MEAN_ELEMENT_THEORY></metadata><data><meanElements><EPOCH>2026-01-15T04:00:03.000096</EPOCH><MEAN_MOTION>15.25001565</MEAN_MOTION><ECCENTRICITY>.0005152</ECCENTRICITY><INCLINATION>51.8805</INCLINATION><RA_OF_ASC_NODE>219.6670</RA_OF_ASC_NODE><ARG_OF_PERICENTER>150.3221</ARG_OF_PERICENTER><MEAN_ANOMALY>29.0279</MEAN_ANOMALY></meanElements><tleParameters><EPHEMERIS_TYPE>0</EPHEMERIS_TYPE><CLASSIFICATION_TYPE>U</CLASSIFICATION_TYPE><NORAD_CAT_ID>65970</NORAD_CAT_ID><ELEMENT_SET_NO>999</ELEMENT_SET_NO><REV_AT_EPOCH>567</REV_AT_EPOCH><BSTAR>-.83561E-1</BSTAR><MEAN_MOTION_DOT>-.1920375E-1</MEAN_MOTION_DOT><MEAN_MOTION_DDOT>0</MEAN_MOTION_DDOT></tleParameters></data></segment></body></omm>
<omm id="CCSDS_OMM_VERS" version="2.0">
<header><CREATION_DATE/><ORIGINATOR/></header><body><segment><metadata><OBJECT_NAME>KUIPER-00144</OBJECT_NAME><OBJECT_ID>2025-301A</OBJECT_ID><CENTER_NAME>EARTH</CENTER_NAME><REF_FRAME>TEME</REF_FRAME><TIME_SYSTEM>UTC</TIME_SYSTEM><MEAN_ELEMENT_THEORY>SGP4</MEAN_ELEMENT_THEORY></metadata><data><meanElements><EPOCH>2026-01-15T00:35:23.383680</EPOCH><MEAN_MOTION>15.36214226</MEAN_MOTION><ECCENTRICITY>.0006321</ECCENTRICITY><INCLINATION>51.8707</INCLINATION><RA_OF_ASC_NODE>324.5762</RA_OF_ASC_NODE><ARG_OF_PERICENTER>180.3954</ARG_OF_PERICENTER><MEAN_ANOMALY>179.7028</MEAN_ANOMALY></meanElements><tleParameters><EPHEMERIS_TYPE>0</EPHEMERIS_TYPE><CLASSIFICATION_TYPE>U</CLASSIFICATION_TYPE><NORAD_CAT_ID>67133</NORAD_CAT_ID><ELEMENT_SET_NO>999</ELEMENT_SET_NO><REV_AT_EPOCH>548</REV_AT_EPOCH><BSTAR>.31286E-3</BSTAR><MEAN_MOTION_DOT>.10847E-3</MEAN_MOTION_DOT><MEAN_MOTION_DDOT>0</MEAN_MOTION_DDOT></tleParameters></data></segment></body></omm>
<omm id="CCSDS_OMM_VERS" version="2.0">
<header><CREATION_DATE/><ORIGINATOR/></header><body><segment><metadata><OBJECT_NAME>KUIPER-00164</OBJECT_NAME><OBJECT_ID>2025-301B</OBJECT_ID><CENTER_NAME>EARTH</CENTER_NAME><REF_FRAME>TEME</REF_FRAME><TIME_SYSTEM>UTC</TIME_SYSTEM><MEAN_ELEMENT_THEORY>SGP4</MEAN_ELEMENT_THEORY></metadata><data><meanElements><EPOCH>2026-01-14T21:10:18.621408</EPOCH><MEAN_MOTION>15.36712194</MEAN_MOTION><ECCENTRICITY>.0003068</ECCENTRICITY><INCLINATION>51.8724</INCLINATION><RA_OF_ASC_NODE>325.1266</RA_OF_ASC_NODE><ARG_OF_PERICENTER>161.9339</ARG_OF_PERICENTER><MEAN_ANOMALY>198.1757</MEAN_ANOMALY></meanElements><tleParameters><EPHEMERIS_TYPE>0</EPHEMERIS_TYPE><CLASSIFICATION_TYPE>U</CLASSIFICATION_TYPE><NORAD_CAT_ID>67134</NORAD_CAT_ID><ELEMENT_SET_NO>999</ELEMENT_SET_NO><REV_AT_EPOCH>564</REV_AT_EPOCH><BSTAR>.53237E-3</BSTAR><MEAN_MOTION_DOT>.19051E-3</MEAN_MOTION_DOT><MEAN_MOTION_DDOT>0</MEAN_MOTION_DDOT></tleParameters></data></segment></body></omm>
<omm id="CCSDS_OMM_VERS" version="2.0">
<header><CREATION_DATE/><ORIGINATOR/></header><body><segment><metadata><OBJECT_NAME>KUIPER-00175</OBJECT_NAME><OBJECT_ID>2025-301C</OBJECT_ID><CENTER_NAME>EARTH</CENTER_NAME><REF_FRAME>TEME</REF_FRAME><TIME_SYSTEM>UTC</TIME_SYSTEM><MEAN_ELEMENT_THEORY>SGP4</MEAN_ELEMENT_THEORY></metadata><data><meanElements><EPOCH>2026-01-15T01:36:53.648640</EPOCH><MEAN_MOTION>15.37262973</MEAN_MOTION><ECCENTRICITY>.0002314</ECCENTRICITY><INCLINATION>51.8745</INCLINATION><RA_OF_ASC_NODE>324.1175</RA_OF_ASC_NODE><ARG_OF_PERICENTER>112.9615</ARG_OF_PERICENTER><MEAN_ANOMALY>247.1616</MEAN_ANOMALY></meanElements><tleParameters><EPHEMERIS_TYPE>0</EPHEMERIS_TYPE><CLASSIFICATION_TYPE>U</CLASSIFICATION_TYPE><NORAD_CAT_ID>67135</NORAD_CAT_ID><ELEMENT_SET_NO>999</ELEMENT_SET_NO><REV_AT_EPOCH>556</REV_AT_EPOCH><BSTAR>.66115E-3</BSTAR><MEAN_MOTION_DOT>.242E-3</MEAN_MOTION_DOT><MEAN_MOTION_DDOT>0</MEAN_MOTION_DDOT></tleParameters></data></segment></body></omm>
<omm id="CCSDS_OMM_VERS" version="2.0">
<header><CREATION_DATE/><ORIGINATOR/></header><body><segment><metadata><OBJECT_NAME>KUIPER-00179</OBJECT_NAME><OBJECT_ID>2025-301D</OBJECT_ID><CENTER_NAME>EARTH</CENTER_NAME><REF_FRAME>TEME</REF_FRAME><TIME_SYSTEM>UTC</TIME_SYSTEM><MEAN_ELEMENT_THEORY>SGP4</MEAN_ELEMENT_THEORY></metadata><data><meanElements><EPOCH>2026-01-15T01:47:19.207968</EPOCH><MEAN_MOTION>15.36883593</MEAN_MOTION><ECCENTRICITY>.0003897</ECCENTRICITY><INCLINATION>51.8749</INCLINATION><RA_OF_ASC_NODE>324.1673</RA_OF_ASC_NODE><ARG_OF_PERICENTER>137.3914</ARG_OF_PERICENTER><MEAN_ANOMALY>222.7375</MEAN_ANOMALY></meanElements><tleParameters><EPHEMERIS_TYPE>0</EPHEMERIS_TYPE><CLASSIFICATION_TYPE>U</CLASSIFICATION_TYPE><NORAD_CAT_ID>67136</NORAD_CAT_ID><ELEMENT_SET_NO>999</ELEMENT_SET_NO><REV_AT_EPOCH>567</REV_AT_EPOCH><BSTAR>.59964E-3</BSTAR><MEAN_MOTION_DOT>.21637E-3</MEAN_MOTION_DOT><MEAN_MOTION_DDOT>0</MEAN_MOTION_DDOT></tleParameters></data></segment></body></omm>
<omm id="CCSDS_OMM_VERS" version="2.0">
<header><CREATION_DATE/><ORIGINATOR/></header><body><segment><metadata><OBJECT_NAME>KUIPER-00181</OBJECT_NAME><OBJECT_ID>2025-301E</OBJECT_ID><CENTER_NAME>EARTH</CENTER_NAME><REF_FRAME>TEME</REF_FRAME><TIME_SYSTEM>UTC</TIME_SYSTEM><MEAN_ELEMENT_THEORY>SGP4</MEAN_ELEMENT_THEORY></metadata><data><meanElements><EPOCH>2026-01-15T02:40:15.519072</EPOCH><MEAN_MOTION>15.34921685</MEAN_MOTION><ECCENTRICITY>.0010527</ECCENTRICITY><INCLINATION>51.8661</INCLINATION><RA_OF_ASC_NODE>324.3878</RA_OF_ASC_NODE><ARG_OF_PERICENTER>209.1639</ARG_OF_PERICENTER><MEAN_ANOMALY>150.8760</MEAN_ANOMALY></meanElements><tleParameters><EPHEMERIS_TYPE>0</EPHEMERIS_TYPE><CLASSIFICATION_TYPE>U</CLASSIFICATION_TYPE><NORAD_CAT_ID>67137</NORAD_CAT_ID><ELEMENT_SET_NO>999</ELEMENT_SET_NO><REV_AT_EPOCH>565</REV_AT_EPOCH><BSTAR>.55989E-3</BSTAR><MEAN_MOTION_DOT>.18948E-3</MEAN_MOTION_DOT><MEAN_MOTION_DDOT>0</MEAN_MOTION_DDOT></tleParameters></data></segment></body></omm>
<omm id="CCSDS_OMM_VERS" version="2.0">
<header><CREATION_DATE/><ORIGINATOR/></header><body><segment><metadata><OBJECT_NAME>KUIPER-00183</OBJECT_NAME><OBJECT_ID>2025-301F</OBJECT_ID><CENTER_NAME>EARTH</CENTER_NAME><REF_FRAME>TEME</REF_FRAME><TIME_SYSTEM>UTC</TIME_SYSTEM><MEAN_ELEMENT_THEORY>SGP4</MEAN_ELEMENT_THEORY></metadata><data><meanElements><EPOCH>2026-01-15T02:46:51.206016</EPOCH><MEAN_MOTION>15.34862779</MEAN_MOTION><ECCENTRICITY>.0011443</ECCENTRICITY><INCLINATION>51.8640</INCLINATION><RA_OF_ASC_NODE>324.4130</RA_OF_ASC_NODE><ARG_OF_PERICENTER>210.6271</ARG_OF_PERICENTER><MEAN_ANOMALY>149.4047</MEAN_ANOMALY></meanElements><tleParameters><EPHEMERIS_TYPE>0</EPHEMERIS_TYPE><CLASSIFICATION_TYPE>U</CLASSIFICATION_TYPE><NORAD_CAT_ID>67138</NORAD_CAT_ID><ELEMENT_SET_NO>999</ELEMENT_SET_NO><REV_AT_EPOCH>566</REV_AT_EPOCH><BSTAR>.40801E-3</BSTAR><MEAN_MOTION_DOT>.13672E-3</MEAN_MOTION_DOT><MEAN_MOTION_DDOT>0</MEAN_MOTION_DDOT></tleParameters></data></segment></body></omm>
<omm id="CCSDS_OMM_VERS" version="2.0">
<header><CREATION_DATE/><ORIGINATOR/></header><body><segment><metadata><OBJECT_NAME>KUIPER-00184</OBJECT_NAME><OBJECT_ID>2025-301G</OBJECT_ID><CENTER_NAME>EARTH</CENTER_NAME><REF_FRAME>TEME</REF_FRAME><TIME_SYSTEM>UTC</TIME_SYSTEM><MEAN_ELEMENT_THEORY>SGP4</MEAN_ELEMENT_THEORY></metadata><data><meanElements><EPOCH>2026-01-15T02:37:20.828640</EPOCH><MEAN_MOTION>15.35177735</MEAN_MOTION><ECCENTRICITY>.0009097</ECCENTRICITY><INCLINATION>51.8664</INCLINATION><RA_OF_ASC_NODE>324.3739</RA_OF_ASC_NODE><ARG_OF_PERICENTER>208.9490</ARG_OF_PERICENTER><MEAN_ANOMALY>151.0992</MEAN_ANOMALY></meanElements><tleParameters><EPHEMERIS_TYPE>0</EPHEMERIS_TYPE><CLASSIFICATION_TYPE>U</CLASSIFICATION_TYPE><NORAD_CAT_ID>67139</NORAD_CAT_ID><ELEMENT_SET_NO>999</ELEMENT_SET_NO><REV_AT_EPOCH>577</REV_AT_EPOCH><BSTAR>.57907E-3</BSTAR><MEAN_MOTION_DOT>.19768E-3</MEAN_MOTION_DOT><MEAN_MOTION_DDOT>0</MEAN_MOTION_DDOT></tleParameters></data></segment></body></omm>

</ndm>
